{
  "norad_id": 45695,
  "name": "STARLINK-1420",
  "history": [
    {
      "epoch": "2026-03-28T19:47:25.487520Z",
      "apogee_km": 398.47972296023727,
      "perigee_km": 392.8766939724028,
      "latitude_deg": -6.624986328260821e-05,
      "longitude_deg": 166.7456531617158,
      "height_km": 399.22988877114204,
      "semi_major_axis_km": 6773.81520846632,
      "eccentricity": 0.00041358,
      "inclination_deg": 53.0513,
      "raan_deg": 289.8414,
      "arg_perigee_deg": 198.8121,
      "mean_anomaly_deg": 161.2737,
      "mean_motion_rev_day": 15.57229939
    }
  ]
}